ORBCOMM FM103           
1 40091U 14040F   25077.18709107  .00002173  00000+0  50561-3 0  9999
2 40091  47.0038  87.5006 0002587 246.1481 113.9133 14.57923868567880
ORBCOMM FM114           
1 41179U 15081A   25077.21168728  .00002517  00000+0  57917-3 0  9999
2 41179  47.0037 356.4887 0002676 295.0912  64.9695 14.57984760491245
ORBCOMM FM119           
1 41180U 15081B   25076.78395043  .00002058  00000+0  48116-3 0  9995
2 41180  46.9990 267.7879 0001045 328.4593  31.6229 14.57899343492385
ORBCOMM FM110           
1 41182U 15081D   25076.91333756  .00003572  00000+0  80635-3 0  9999
2 41182  47.0029 357.2658 0001632  71.5721 288.5342 14.57985312491024
ORBCOMM FM112           
1 41184U 15081F   25076.96579524  .00002543  00000+0  58550-3 0  9999
2 41184  46.9973 266.0910 0001112 290.1262  69.9504 14.57928868492409
ORBCOMM FM113           
1 41185U 15081G   25076.94277131  .00002842  00000+0  65004-3 0  9991
2 41185  46.9992 266.5125 0001010 307.4192  52.6601 14.57919980492339
